NORAD_CAT_ID,OBJECT_NAME,OBJECT_TYPE,EPOCH,MEAN_MOTION,ECCENTRICITY,INCLINATION,RA_OF_ASC_NODE,ARG_OF_PERICENTER,MEAN_ANOMALY,BSTAR,MEAN_MOTION_DOT,MEAN_MOTION_DDOT,TLE_LINE0,TLE_LINE1,TLE_LINE2,SEMIMAJOR_AXIS,PERIOD,APOGEE,PERIGEE,DECAYED
54182.0,STARLINK-5231,PAYLOAD,2023-12-07 12:22:11,15.08021139,0.0001918,53.2192,69.069,56.928,303.1895,-5.086e-05,-1.077e-05,0.0,0 STARLINK-5231,1 54182U 22141AB  23341.51541382 -.00001077  00000-0 -50860-4 0  9992,2 54182  53.2192  69.0690 0001918  56.9280 303.1895 15.08021139 62246,6920.384,95.489,543.577,540.922,0.0
54182.0,STARLINK-5231,PAYLOAD,2023-12-08 12:13:44,15.08024224,0.0001365,53.2188,64.6085,91.3471,268.7677,8.5951e-05,1.052e-05,0.0,0 STARLINK-5231,1 54182U 22141AB  23342.50954265  .00001052  00000-0  85951-4 0  9990,2 54182  53.2188  64.6085 0001365  91.3471 268.7677 15.08024224 62399,6920.375,95.489,543.185,541.295,0.0
54182.0,STARLINK-5231,PAYLOAD,2023-12-08 15:24:36,15.08025355,0.0001355,53.2187,64.0139,92.7084,267.4063,9.2843e-05,1.16e-05,0.0,0 STARLINK-5231,1 54182U 22141AB  23342.64209334  .00001160  00000-0  92843-4 0  9993,2 54182  53.2187  64.0139 0001355  92.7084 267.4063 15.08025355 62184,6920.372,95.489,543.174,541.299,0.0
54182.0,STARLINK-5231,PAYLOAD,2023-12-09 12:05:18,15.08020503,0.000145,53.2199,60.1498,91.299,268.8168,3.9786e-05,3.34e-06,0.0,0 STARLINK-5231,1 54182U 22141AB  23343.50368630  .00000334  00000-0  39786-4 0  9993,2 54182  53.2199  60.1498 0001450  91.2990 268.8168 15.08020503 62549,6920.386,95.489,543.255,541.248,0.0
54182.0,STARLINK-5231,PAYLOAD,2023-12-10 05:35:07,15.08020293,0.0001393,53.2188,56.8828,92.382,267.7331,-2.3991e-05,-6.59e-06,0.0,0 STARLINK-5231,1 54182U 22141AB  23344.23272520 -.00000659  00000-0 -23991-4 0  9999,2 54182  53.2188  56.8828 0001393  92.3820 267.7331 15.08020293 62429,6920.387,95.489,543.216,541.288,0.0
54182.0,STARLINK-5231,PAYLOAD,2023-12-11 11:48:25,15.08020971,0.0001459,53.2197,51.2386,102.8243,257.2912,5.022e-05,4.96e-06,0.0,0 STARLINK-5231,1 54182U 22141AB  23345.49196642  .00000496  00000-0  50220-4 0  9990,2 54182  53.2197  51.2386 0001459 102.8243 257.2912 15.08020971 62844,6920.385,95.489,543.26,541.24,0.0
54182.0,STARLINK-5231,PAYLOAD,2023-12-12 11:39:59,15.08019986,0.0001315,53.2193,46.7799,86.6315,273.4828,3.6249e-05,2.79e-06,0.0,0 STARLINK-5231,1 54182U 22141AB  23346.48610933  .00000279  00000-0  36249-4 0  9998,2 54182  53.2193  46.7799 0001315  86.6315 273.4828 15.08019986 62768,6920.388,95.489,543.163,541.343,0.0
54182.0,STARLINK-5231,PAYLOAD,2023-12-13 11:31:33,15.08001958,0.000166,53.2201,42.3224,70.0767,290.0404,0.00038841,5.761e-05,0.0,0 STARLINK-5231,1 54182U 22141AB  23347.48024927  .00005761  00000-0  38841-3 0  9991,2 54182  53.2201  42.3224 0001660  70.0767 290.0404 15.08001958 63142,6920.443,95.491,543.457,541.159,0.0
54182.0,STARLINK-5231,PAYLOAD,2023-12-14 09:47:41,15.08002846,0.0001973,53.2206,38.1632,55.8182,304.2996,0.00034195,5.037e-05,0.0,0 STARLINK-5231,1 54182U 22141AB  23348.40811359  .00005037  00000-0  34195-3 0  9991,2 54182  53.2206  38.1632 0001973  55.8182 304.2996 15.08002846 63053,6920.44,95.491,543.671,540.94,0.0
54182.0,STARLINK-5231,PAYLOAD,2023-12-15 09:39:14,15.08027897,0.0001524,53.2191,33.7079,75.4208,284.6953,-2.3563e-05,-6.52e-06,0.0,0 STARLINK-5231,1 54182U 22141AB  23349.40224767 -.00000652  00000-0 -23563-4 0  9991,2 54182  53.2191  33.7079 0001524  75.4208 284.6953 15.08027897 63430,6920.364,95.489,543.283,541.174,0.0
54182.0,STARLINK-5231,PAYLOAD,2023-12-16 09:30:42,15.0808942,0.0001781,53.2196,29.2505,96.1442,263.9753,0.00058503,8.848e-05,0.0,0 STARLINK-5231,1 54182U 22141AB  23350.39632849  .00008848  00000-0  58503-3 0  9999,2 54182  53.2196  29.2505 0001781  96.1442 263.9753 15.08089420 63588,6920.176,95.485,543.273,540.808,0.0
54182.0,STARLINK-5231,PAYLOAD,2023-12-17 12:32:16,15.08520653,0.0001605,53.2187,24.1945,86.2684,273.8491,0.0034664,0.00054827,0.0,0 STARLINK-5231,1 54182U 22141AB  23351.52241849  .00054827  00000-0  34664-2 0  9990,2 54182  53.2187  24.1945 0001605  86.2684 273.8491 15.08520653 63759,6918.857,95.458,541.832,539.611,0.0
54182.0,STARLINK-5231,PAYLOAD,2023-12-17 14:07:41,15.08528706,0.0001611,53.2187,23.8972,87.6331,272.4846,0.003473,0.00054945,0.0,0 STARLINK-5231,1 54182U 22141AB  23351.58867006  .00054945  00000-0  34730-2 0  9990,2 54182  53.2187  23.8972 0001611  87.6331 272.4846 15.08528706 63538,6918.832,95.457,541.812,539.582,0.0
54182.0,STARLINK-5231,PAYLOAD,2023-12-18 07:37:04,15.08609113,0.0002348,53.2187,20.627,130.0707,230.0491,0.0030418,0.00048148,0.0,0 STARLINK-5231,1 54182U 22141AB  23352.31741665  .00048148  00000-0  30418-2 0  9991,2 54182  53.2187  20.6270 0002348 130.0707 230.0491 15.08609113 63877,6918.586,95.452,542.076,538.827,0.0
54182.0,STARLINK-5231,PAYLOAD,2023-12-18 17:09:29,15.08622667,0.0001646,53.2186,18.844,127.2468,232.8674,0.0024602,0.0003885,0.0,0 STARLINK-5231,1 54182U 22141AB  23352.71492618  .00038850  00000-0  24602-2 0  9993,2 54182  53.2186  18.8440 0001646 127.2468 232.8674 15.08622667 63935,6918.545,95.451,541.549,539.271,0.0
54182.0,STARLINK-5231,PAYLOAD,2023-12-19 09:03:16,15.08833047,0.0001543,53.2185,15.8689,90.1734,269.9435,-5.1103e-06,-3.69e-06,0.0,0 STARLINK-5231,1 54182U 22141AB  23353.37726968 -.00000369  00000-0 -51103-5 0  9999,2 54182  53.2185  15.8689 0001543  90.1734 269.9435 15.08833047 64030,6917.902,95.438,540.834,538.699,0.0
54182.0,STARLINK-5231,PAYLOAD,2023-12-19 15:24:48,15.08840565,0.0001519,53.2185,14.6801,90.6892,269.4274,6.8146e-05,7.97e-06,0.0,0 STARLINK-5231,1 54182U 22141AB  23353.64222458  .00000797  00000-0  68146-4 0  9991,2 54182  53.2185  14.6801 0001519  90.6892 269.4274 15.08840565 64079,6917.879,95.438,540.794,538.693,0.0
54182.0,STARLINK-5231,PAYLOAD,2023-12-20 08:54:01,15.08857465,0.0001706,53.2192,11.4103,108.01,252.1079,1.9858e-05,2.8e-07,0.0,0 STARLINK-5231,1 54182U 22141AB  23354.37085594  .00000028  00000-0  19858-4 0  9993,2 54182  53.2192  11.4103 0001706 108.0100 252.1079 15.08857465 64182,6917.827,95.436,540.872,538.512,0.0
54182.0,STARLINK-5231,PAYLOAD,2023-12-21 08:44:49,15.08855352,0.0001678,53.2188,6.9556,80.5963,279.5218,0.00032044,4.818e-05,0.0,0 STARLINK-5231,1 54182U 22141AB  23355.36445820  .00004818  00000-0  32044-3 0  9997,2 54182  53.2188   6.9556 0001678  80.5963 279.5218 15.08855352 64335,6917.833,95.437,540.859,538.538,0.0
54182.0,STARLINK-5231,PAYLOAD,2023-12-22 07:00:13,15.08840342,0.0001448,53.2192,2.7872,107.0956,253.0195,-5.9836e-05,-1.24e-05,0.0,0 STARLINK-5231,1 54182U 22141AB  23356.29182379 -.00001240  00000-0 -59836-4 0  9994,2 54182  53.2192   2.7872 0001448 107.0956 253.0195 15.08840342 64476,6917.879,95.438,540.746,538.743,0.0
54182.0,STARLINK-5231,PAYLOAD,2023-12-23 03:40:15,15.08834114,0.0001282,53.2193,358.923,92.7646,267.3493,-0.00015672,-2.781e-05,0.0,0 STARLINK-5231,1 54182U 22141AB  23357.15295195 -.00002781  00000-0 -15672-3 0  9991,2 54182  53.2193 358.9230 0001282  92.7646 267.3493 15.08834114 64607,6917.898,95.438,540.65,538.877,0.0
54182.0,STARLINK-5231,PAYLOAD,2023-12-23 06:51:01,15.08837651,0.0001643,53.2204,358.3271,92.1016,268.0165,-9.594e-05,-1.815e-05,0.0,0 STARLINK-5231,1 54182U 22141AB  23357.28543108 -.00001815  00000-0 -95940-4 0  9999,2 54182  53.2204 358.3271 0001643  92.1016 268.0165 15.08837651 64394,6917.888,95.438,540.889,538.616,0.0
54182.0,STARLINK-5231,PAYLOAD,2023-12-24 03:31:01,15.08836546,0.000139,53.2203,354.4642,83.6436,276.4715,0.00021837,3.189e-05,0.0,0 STARLINK-5231,1 54182U 22141AB  23358.14655089  .00003189  00000-0  21837-3 0  9994,2 54182  53.2203 354.4642 0001390  83.6436 276.4715 15.08836546 64758,6917.891,95.438,540.718,538.794,0.0
54182.0,STARLINK-5231,PAYLOAD,2023-12-24 06:41:48,15.08843654,0.0001614,53.2196,353.8644,96.8996,263.218,0.00035434,5.356e-05,0.0,0 STARLINK-5231,1 54182U 22141AB  23358.27903164  .00005356  00000-0  35434-3 0  9994,2 54182  53.2196 353.8644 0001614  96.8996 263.2180 15.08843654 64545,6917.869,95.437,540.851,538.618,0.0
54182.0,STARLINK-5231,PAYLOAD,2023-12-25 04:57:12,15.08843176,0.0001836,53.219,349.7028,121.2573,238.8599,0.00010559,1.393e-05,0.0,0 STARLINK-5231,1 54182U 22141AB  23359.20639111  .00001393  00000-0  10559-3 0  9994,2 54182  53.2190 349.7028 0001836 121.2573 238.8599 15.08843176 64911,6917.871,95.437,541.006,538.466,0.0
54182.0,STARLINK-5231,PAYLOAD,2023-12-26 03:12:36,15.08840038,0.0001427,53.2192,345.5432,99.8028,260.3125,-3.8244e-05,-8.97e-06,0.0,0 STARLINK-5231,1 54182U 22141AB  23360.13375463 -.00000897  00000-0 -38244-4 0  9997,2 54182  53.2192 345.5432 0001427  99.8028 260.3125 15.08840038 65052,6917.88,95.438,540.732,538.758,0.0
54182.0,STARLINK-5231,PAYLOAD,2023-12-26 06:23:22,15.08843312,0.0001595,53.2191,344.9472,109.9328,250.1836,7.998e-06,-1.61e-06,0.0,0 STARLINK-5231,1 54182U 22141AB  23360.26623246 -.00000161  00000-0  79980-5 0  9992,2 54182  53.2191 344.9472 0001595 109.9328 250.1836 15.08843312 64840,6917.87,95.437,540.839,538.632,0.0
54182.0,STARLINK-5231,PAYLOAD,2023-12-27 07:49:32,15.08844181,0.0001548,53.2201,340.1852,102.7062,257.4104,0.00010586,1.397e-05,0.0,0 STARLINK-5231,1 54182U 22141AB  23361.32607497  .00001397  00000-0  10586-3 0  9996,2 54182  53.2201 340.1852 0001548 102.7062 257.4104 15.08844181 65233,6917.868,95.437,540.803,538.662,0.0
54182.0,STARLINK-5231,PAYLOAD,2023-12-28 04:29:34,15.08839768,0.0001621,53.2206,336.3216,102.9857,257.1317,7.2011e-05,8.58e-06,0.0,0 STARLINK-5231,1 54182U 22141AB  23362.18720080  .00000858  00000-0  72011-4 0  9998,2 54182  53.2206 336.3216 0001621 102.9857 257.1317 15.08839768 65367,6917.881,95.438,540.867,538.625,0.0
54182.0,STARLINK-5231,PAYLOAD,2023-12-28 07:40:20,15.08844315,0.0001554,53.2204,335.7215,90.0393,270.0777,0.0001244,1.693e-05,0.0,0 STARLINK-5231,1 54182U 22141AB  23362.31967707  .00001693  00000-0  12440-3 0  9999,2 54182  53.2204 335.7215 0001554  90.0393 270.0777 15.08844315 65159,6917.867,95.437,540.807,538.657,0.0
